{"type": "FeatureCollection", "features": [ {"type": "Feature", "properties": {"norad_id": 66547, "name": "SHIJIAN-30C", "group": "last-30-days", "lat": 37.57203467784976, "lon": -4.482073447468307, "alt_km": 509.36750329948245, "timestamp": "2025-12-15T20:48:52.613391+00:00", "meta": {"OBJECT_NAME": "SHIJIAN-30C", "OBJECT_ID": "2025-266C", "EPOCH": "2025-12-14T22:26:00.736800", "MEAN_MOTION": 15.15425357, "ECCENTRICITY": 0.00114983, "INCLINATION": 51.7975, "RA_OF_ASC_NODE": 322.5958, "ARG_OF_PERICENTER": 359.3825, "MEAN_ANOMALY": 0.7136, "EPHEMERIS_TYPE": 0, "CLASSIFICATION_TYPE": "U", "NORAD_CAT_ID": 66547, "ELEMENT_SET_NO": 999, "REV_AT_EPOCH": 391, "BSTAR": 0.0004738064, "MEAN_MOTION_DOT": 8.78e-05, "MEAN_MOTION_DDOT": 0}, "tle": {"line1": "1 66547U 25266C   25348.93473075  .00008780  00000+0  47381-3 0  9997", "line2": "2 66547  51.7975 322.5958 0011498 359.3825   0.7136 15.15425357  3914"}}, "geometry": {"type": "Point", "coordinates": [-4.482073447468307, 37.57203467784976]}}, {"type": "Feature", "properties": {"norad_id": 66548, "name": "CZ-2C R/B", "group": "last-30-days", "lat": 0.5481434941905317, "lon": -43.19503125949118, "alt_km": 533.1346737467729, "timestamp": "2025-12-15T20:48:52.613401+00:00", "meta": {"OBJECT_NAME": "CZ-2C R/B", "OBJECT_ID": "2025-266D", "EPOCH": "2025-12-14T22:52:05.153088", "MEAN_MOTION": 15.30229164, "ECCENTRICITY": 0.00838141, "INCLINATION": 52.0542, "RA_OF_ASC_NODE": 320.7359, "ARG_OF_PERICENTER": 180.6814, "MEAN_ANOMALY": 179.4072, "EPHEMERIS_TYPE": 0, "CLASSIFICATION_TYPE": "U", "NORAD_CAT_ID": 66548, "ELEMENT_SET_NO": 999, "REV_AT_EPOCH": 395, "BSTAR": 0.00024604884, "MEAN_MOTION_DOT": 7.727e-05, "MEAN_MOTION_DDOT": 0}, "tle": {"line1": "1 66548U 25266D   25348.95283742  .00007727  00000+0  24605-3 0  9994", "line2": "2 66548  52.0542 320.7359 0083814 180.6814 179.4072 15.30229164  3950"}}, "geometry": {"type": "Point", "coordinates": [-43.19503125949118, 0.5481434941905317]}}, {"type": "Feature", "properties": {"norad_id": 66549, "name": "SHIJIAN-28", "group": "last-30-days", "lat": -4.2940682030717, "lon": 153.7273185333891, "alt_km": 35787.85360496228, "timestamp": "2025-12-15T20:48:52.613417+00:00", "meta": {"OBJECT_NAME": "SHIJIAN-28", "OBJECT_ID": "2025-277A", "EPOCH": "2025-12-14T21:58:24.129984", "MEAN_MOTION": 1.00271392, "ECCENTRICITY": 8.924e-05, "INCLINATION": 5.013, "RA_OF_ASC_NODE": 274.9222, "ARG_OF_PERICENTER": 134.0869, "MEAN_ANOMALY": 121.2746, "EPHEMERIS_TYPE": 0, "CLASSIFICATION_TYPE": "U", "NORAD_CAT_ID": 66549, "ELEMENT_SET_NO": 999, "REV_AT_EPOCH": 30, "BSTAR": 0, "MEAN_MOTION_DOT": -3.38e-06, "MEAN_MOTION_DDOT": 0}, "tle": {"line1": "1 66549U 25277A   25348.91555706 -.00000338  00000+0  00000+0 0  9996", "line2": "2 66549   5.0130 274.9222 0000892 134.0869 121.2746  1.00271392   300"}}, "geometry": {"type": "Point", "coordinates": [153.7273185333891, -4.2940682030717]}}, {"type": "Feature", "properties": {"norad_id": 66550, "name": "CZ-7A R/B", "group": "last-30-days", "lat": -2.222994856479662, "lon": -100.41529516672568, "alt_km": 24890.388436679226, "timestamp": "2025-12-15T20:48:52.613432+00:00", "meta": {"OBJECT_NAME": "CZ-7A R/B", "OBJECT_ID": "2025-277B", "EPOCH": "2025-12-12T23:59:46.063680", "MEAN_MOTION": 2.69999213, "ECCENTRICITY": 0.70164962, "INCLINATION": 14.3833, "RA_OF_ASC_NODE": 269.7494, "ARG_OF_PERICENTER": 189.2871, "MEAN_ANOMALY": 143.2042, "EPHEMERIS_TYPE": 0, "CLASSIFICATION_TYPE": "U", "NORAD_CAT_ID": 66550, "ELEMENT_SET_NO": 999, "REV_AT_EPOCH": 35, "BSTAR": 0.0022608485, "MEAN_MOTION_DOT": 0.01807848, "MEAN_MOTION_DDOT": -2.55676e-07}, "tle": {"line1": "1 66550U 25277B   25346.99983870  .01807848 -25568-6  22608-2 0  9997", "line2": "2 66550  14.3833 269.7494 7016496 189.2871 143.2042  2.69999213   350"}}, "geometry": {"type": "Point", "coordinates": [-100.41529516672568, -2.222994856479662]}}, {"type": "Feature", "properties": {"norad_id": 66554, "name": "GLOBAL-33", "group": "last-30-days", "lat": 28.913345400960687, "lon": 76.77336025296898, "alt_km": 463.56625977303247, "timestamp": "2025-12-15T20:48:52.613451+00:00", "meta": {"OBJECT_NAME": "GLOBAL-33", "OBJECT_ID": "2025-267A", "EPOCH": "2025-12-14T05:29:19.257504", "MEAN_MOTION": 15.31602676, "ECCENTRICITY": 0.00047698, "INCLINATION": 42.0183, "RA_OF_ASC_NODE": 48.3968, "ARG_OF_PERICENTER": 75.153, "MEAN_ANOMALY": 284.9835, "EPHEMERIS_TYPE": 0, "CLASSIFICATION_TYPE": "U", "NORAD_CAT_ID": 66554, "ELEMENT_SET_NO": 999, "REV_AT_EPOCH": 363, "BSTAR": 0.00088997621, "MEAN_MOTION_DOT": 0.00027606, "MEAN_MOTION_DDOT": 0}, "tle": {"line1": "1 66554U 25267A   25348.22869511  .00027606  00000+0  88998-3 0  9999", "line2": "2 66554  42.0183  48.3968 0004769  75.1530 284.9835 15.31602676  3639"}}, "geometry": {"type": "Point", "coordinates": [76.77336025296898, 28.913345400960687]}}, {"type": "Feature", "properties": {"norad_id": 66555, "name": "ELECTRON KICK STAGE R/B", "group": "last-30-days", "lat": 32.67093968589793, "lon": 173.32554732232362, "alt_km": 458.6981693701482, "timestamp": "2025-12-15T20:48:52.613462+00:00", "meta": {"OBJECT_NAME": "ELECTRON KICK STAGE R/B", "OBJECT_ID": "2025-267B", "EPOCH": "2025-12-14T11:25:49.783296", "MEAN_MOTION": 15.32916868, "ECCENTRICITY": 0.00065219, "INCLINATION": 42.0199, "RA_OF_ASC_NODE": 46.7904, "ARG_OF_PERICENTER": 67.2555, "MEAN_ANOMALY": 292.8971, "EPHEMERIS_TYPE": 0, "CLASSIFICATION_TYPE": "U", "NORAD_CAT_ID": 66555, "ELEMENT_SET_NO": 999, "REV_AT_EPOCH": 367, "BSTAR": 0.00079255436, "MEAN_MOTION_DOT": 0.00025598, "MEAN_MOTION_DDOT": 0}, "tle": {"line1": "1 66555U 25267B   25348.47627064  .00025598  00000+0  79255-3 0  9996", "line2": "2 66555  42.0199  46.7904 0006521  67.2555 292.8971 15.32916868  3671"}}, "geometry": {"type": "Point", "coordinates": [173.32554732232362, 32.67093968589793]}}, {"type": "Feature", "properties": {"norad_id": 66557, "name": "STARLINK-35699", "group": "last-30-days", "lat": -37.053466344866536, "lon": 48.785286645563176, "alt_km": 416.8696564142838, "timestamp": "2025-12-15T20:48:52.613473+00:00", "meta": {"OBJECT_NAME": "STARLINK-35699", "OBJECT_ID": "2025-268A", "EPOCH": "2025-12-14T18:48:04.423392", "MEAN_MOTION": 15.50599431, "ECCENTRICITY": 0.00014823, "INCLINATION": 42.9998, "RA_OF_ASC_NODE": 109.247, "ARG_OF_PERICENTER": 278.5669, "MEAN_ANOMALY": 81.5023, "EPHEMERIS_TYPE": 0, "CLASSIFICATION_TYPE": "U", "NORAD_CAT_ID": 66557, "ELEMENT_SET_NO": 999, "REV_AT_EPOCH": 494, "BSTAR": 0.00062299681, "MEAN_MOTION_DOT": 0.00036403, "MEAN_MOTION_DDOT": 0}, "tle": {"line1": "1 66557U 25268A   25348.78338453  .00036403  00000+0  62300-3 0  9994", "line2": "2 66557  42.9998 109.2470 0001482 278.5669  81.5023 15.50599431  4941"}}, "geometry": {"type": "Point", "coordinates": [48.785286645563176, -37.053466344866536]}}, {"type": "Feature", "properties": {"norad_id": 66558, "name": "STARLINK-35695", "group": "last-30-days", "lat": -35.80698296129004, "lon": 52.16711761462169, "alt_km": 414.5834062007925, "timestamp": "2025-12-15T20:48:52.613483+00:00", "meta": {"OBJECT_NAME": "STARLINK-35695", "OBJECT_ID": "2025-268B", "EPOCH": "2025-12-14T09:31:01.825824", "MEAN_MOTION": 15.50619901, "ECCENTRICITY": 0.00033984, "INCLINATION": 42.9996, "RA_OF_ASC_NODE": 111.5058, "ARG_OF_PERICENTER": 273.9479, "MEAN_ANOMALY": 86.0993, "EPHEMERIS_TYPE": 0, "CLASSIFICATION_TYPE": "U", "NORAD_CAT_ID": 66558, "ELEMENT_SET_NO": 999, "REV_AT_EPOCH": 488, "BSTAR": 0.0023801363, "MEAN_MOTION_DOT": 0.00142075, "MEAN_MOTION_DDOT": 0}, "tle": {"line1": "1 66558U 25268B   25348.39654891  .00142075  00000+0  23801-2 0  9994", "line2": "2 66558  42.9996 111.5058 0003398 273.9479  86.0993 15.50619901  4888"}}, "geometry": {"type": "Point", "coordinates": [52.16711761462169, -35.80698296129004]}}, {"type": "Feature", "properties": {"norad_id": 66559, "name": "STARLINK-35419", "group": "last-30-days", "lat": -35.09161745207491, "lon": 53.95922124567269, "alt_km": 415.514591135724, "timestamp": "2025-12-15T20:48:52.613493+00:00", "meta": {"OBJECT_NAME": "STARLINK-35419", "OBJECT_ID": "2025-268C", "EPOCH": "2025-12-14T09:30:32.301216", "MEAN_MOTION": 15.5061065, "ECCENTRICITY": 0.00025477, "INCLINATION": 43.0006, "RA_OF_ASC_NODE": 111.5031, "ARG_OF_PERICENTER": 263.7459, "MEAN_ANOMALY": 96.3111, "EPHEMERIS_TYPE": 0, "CLASSIFICATION_TYPE": "U", "NORAD_CAT_ID": 66559, "ELEMENT_SET_NO": 999, "REV_AT_EPOCH": 488, "BSTAR": 0.001857265, "MEAN_MOTION_DOT": 0.00110293, "MEAN_MOTION_DDOT": 0}, "tle": {"line1": "1 66559U 25268C   25348.39620719  .00110293  00000+0  18573-2 0  9994", "line2": "2 66559  43.0006 111.5031 0002547 263.7459  96.3111 15.50610650  4882"}}, "geometry": {"type": "Point", "coordinates": [53.95922124567269, -35.09161745207491]}}, {"type": "Feature", "properties": {"norad_id": 66560, "name": "STARLINK-35411", "group": "last-30-days", "lat": -34.256377121411965, "lon": 55.93171103009341, "alt_km": 415.69857379740006, "timestamp": "2025-12-15T20:48:52.613503+00:00", "meta": {"OBJECT_NAME": "STARLINK-35411", "OBJECT_ID": "2025-268D", "EPOCH": "2025-12-14T09:30:02.962368", "MEAN_MOTION": 15.50584782, "ECCENTRICITY": 0.00021147, "INCLINATION": 42.9999, "RA_OF_ASC_NODE": 111.5004, "ARG_OF_PERICENTER": 268.2256, "MEAN_ANOMALY": 91.8362, "EPHEMERIS_TYPE": 0, "CLASSIFICATION_TYPE": "U", "NORAD_CAT_ID": 66560, "ELEMENT_SET_NO": 999, "REV_AT_EPOCH": 488, "BSTAR": 0.0020055135, "MEAN_MOTION_DOT": 0.00119146, "MEAN_MOTION_DDOT": 0}, "tle": {"line1": "1 66560U 25268D   25348.39586762  .00119146  00000+0  20055-2 0  9999", "line2": "2 66560  42.9999 111.5004 0002114 268.2256  91.8362 15.50584782  4882"}}, "geometry": {"type": "Point", "coordinates": [55.93171103009341, -34.256377121411965]}}]}